     2.11           N: GPS NAV DATA                         RINEX VERSION / TYPE
teqc  2019Feb25                         20221121 12:24:29UTCPGM / RUN BY / DATE
OSX ker:10.11.6|Core i5|gcc 4.3 -m64|OSX ker:10.10+|=+      COMMENT
    4.6566D-09  1.4901D-08 -5.9605D-08 -1.1921D-07          ION ALPHA
    8.1920D+04  9.8304D+04 -6.5536D+04 -5.2429D+05          ION BETA
    4.656612873077D-09 2.131628207280D-14   405504     1537 DELTA-UTC: A0,A1,T,W
                                                            END OF HEADER
16 09  6 24  0  0  0.0 3.921287134290D-05-3.524291969370D-12 0.000000000000D+00
    1.900000000000D+01-1.165937500000D+02 4.128743407307D-09-2.913303912813D+00
   -5.973502993584D-06 5.365475895815D-03 1.161172986031D-05 5.153578193665D+03
    2.592000000000D+05-8.195638656616D-08-2.969408771223D+00 4.284083843231D-08
    9.691064828321D-01 1.607812500000D+02-3.305476346929D-01-7.594602059946D-09
    1.967939115420D-10 1.000000000000D+00 1.537000000000D+03 0.000000000000D+00
    2.000000000000D+00 0.000000000000D+00-9.778887033463D-09 1.900000000000D+01
    2.520180000000D+05 4.000000000000D+00
25 09  6 24  0  0  0.0 4.765195772052D-04 1.762145984685D-11 0.000000000000D+00
    6.400000000000D+01-8.375000000000D+01 4.523402703593D-09-2.304065951378D+00
   -3.974884748459D-06 1.134081860073D-02-3.278255462646D-07 5.153649873734D+03
    2.592000000000D+05-7.450580596924D-09 2.150364438510D+00 1.527369022369D-07
    9.698689498833D-01 3.869062500000D+02-1.207914328743D+00-8.293202588033D-09
   -2.785830326729D-11 1.000000000000D+00 1.537000000000D+03 0.000000000000D+00
    2.800000000000D+00 0.000000000000D+00-7.450580596924D-09 6.400000000000D+01
    2.520180000000D+05 4.000000000000D+00
21 09  6 24  0  0  0.0 6.658490747213D-06-2.160049916711D-12 0.000000000000D+00
    3.900000000000D+01-2.350000000000D+01 5.419868616426D-09-1.440871352292D+00
   -1.335516571999D-06 1.542888896074D-02 5.431473255157D-06 5.153593673706D+03
    2.592000000000D+05 2.384185791016D-07-8.793634704354D-01-2.309679985046D-07
    9.336621955552D-01 2.587187500000D+02-2.587909772784D+00-8.284630802412D-09
   -4.471614832135D-10 1.000000000000D+00 1.537000000000D+03 0.000000000000D+00
    2.000000000000D+00 0.000000000000D+00-1.210719347000D-08 3.900000000000D+01
    2.520180000000D+05 4.000000000000D+00
24 09  6 24  0  0  0.0 1.991591416299D-04 2.955857780762D-12 0.000000000000D+00
    1.170000000000D+02-2.059375000000D+01 5.042352891380D-09-2.800520508280D+00
   -1.233071088791D-06 6.657260470092D-03 6.349757313728D-06 5.153663114548D+03
    2.592000000000D+05 7.450580596924D-09-8.467679601072D-01 8.009374141693D-08
    9.503203515600D-01 2.544375000000D+02-6.522684795889D-01-8.067478900021D-09
   -6.575273886550D-10 1.000000000000D+00 1.537000000000D+03 0.000000000000D+00
    2.800000000000D+00 0.000000000000D+00-1.396983861923D-09 1.170000000000D+02
    2.520180000000D+05 4.000000000000D+00
 6 09  6 24  0  0  0.0 1.710993237793D-04 1.250555214938D-11 0.000000000000D+00
    9.600000000000D+01 2.709375000000D+01 5.447726919693D-09-2.964399874308D+00
    1.555308699608D-06 5.993408150971D-03 8.296221494675D-06 5.153697862625D+03
    2.592000000000D+05 7.450580596924D-08-1.991344968265D+00 1.359730958939D-07
    9.335265757347D-01 2.031250000000D+02-1.333011837431D+00-8.260344076487D-09
    6.089539368043D-10 1.000000000000D+00 1.537000000000D+03 0.000000000000D+00
    2.000000000000D+00 0.000000000000D+00-4.656612873077D-09 9.600000000000D+01
    2.520180000000D+05 4.000000000000D+00
 3 09  6 24  0  0  0.0 4.107267595828D-04 5.115907697473D-12 0.000000000000D+00
    1.830000000000D+02 2.465625000000D+01 5.677379342781D-09 9.006441301174D-01
    1.579523086548D-06 1.196968241129D-02 9.022653102875D-06 5.153633255005D+03
    2.592000000000D+05-1.266598701477D-07-2.059177749796D+00 1.341104507446D-07
    9.261113146307D-01 1.894687500000D+02 9.064910830608D-01-8.621787703493D-09
    4.850202030383D-10 1.000000000000D+00 1.537000000000D+03 0.000000000000D+00
    2.800000000000D+00 0.000000000000D+00-4.190951585770D-09 1.830000000000D+02
    2.520180000000D+05 4.000000000000D+00
 7 09  6 24  0  0  0.0 1.650629565120D-05-6.821210263297D-13 0.000000000000D+00
    9.800000000000D+01-1.051562500000D+02 4.641264755878D-09-4.668385440306D-01
   -5.446374416351D-06 2.712805871852D-03 5.587935447693D-07 5.153666719437D+03
    2.592000000000D+05-4.284083843231D-08 2.244838858595D+00 1.862645149231D-08
    9.677033966393D-01 3.690937500000D+02 2.874534715566D+00-8.515354698703D-09
   -9.964700784071D-11 1.000000000000D+00 1.537000000000D+03 0.000000000000D+00
    2.000000000000D+00 0.000000000000D+00-1.071020960808D-08 9.800000000000D+01
    2.520180000000D+05 4.000000000000D+00
19 09  6 24  0  0  0.0 2.147117629647D-05-1.364242052659D-12 0.000000000000D+00
    6.000000000000D+01 2.765625000000D+01 5.036995525367D-09 1.644132492032D+00
    1.698732376099D-06 5.701535847038D-03 7.139518857002D-06 5.153612279892D+03
    2.592000000000D+05 8.754432201386D-08-1.871301905910D+00 3.911554813385D-08
    9.570660877241D-01 2.351562500000D+02-3.434150993145D-01-8.140696235531D-09
    4.100170788571D-10 1.000000000000D+00 1.537000000000D+03 0.000000000000D+00
    2.000000000000D+00 0.000000000000D+00-1.443549990654D-08 6.000000000000D+01
    2.520180000000D+05 4.000000000000D+00
 8 09  6 24  0  0  0.0-2.089538611472D-04-1.591615728103D-12 0.000000000000D+00
    9.800000000000D+01-1.167812500000D+02 4.130172038244D-09-1.196496308725D+00
   -6.306916475296D-06 1.064072968438D-02 1.482665538788D-06 5.153644102097D+03
    2.592000000000D+05-7.450580596924D-09 2.305772759845D+00-9.499490261078D-08
    9.889496748207D-01 3.622500000000D+02 2.994360152765D+00-8.276773332260D-09
   -3.928735076157D-11 1.000000000000D+00 1.537000000000D+03 0.000000000000D+00
    2.800000000000D+00 0.000000000000D+00-3.725290298462D-09 9.800000000000D+01
    2.529120000000D+05 4.000000000000D+00
18 09  6 24  0  0  0.0-4.568928852677D-05 3.183231456205D-12 0.000000000000D+00
    5.600000000000D+01 7.162500000000D+01 4.291964491834D-09-2.719068066225D+00
    3.674998879433D-06 1.055632531643D-02 1.250579953194D-05 5.153609487534D+03
    2.592000000000D+05-3.352761268616D-08 1.785462403676D-01-3.539025783539D-08
    9.423865620687D-01 1.277500000000D+02-2.415758507638D+00-7.623174678681D-09
   -3.075128091428D-10 1.000000000000D+00 1.537000000000D+03 0.000000000000D+00
    2.000000000000D+00 0.000000000000D+00-1.071020960808D-08 5.600000000000D+01
    2.560020000000D+05 4.000000000000D+00
22 09  6 24  0  0  0.0 1.969169825315D-04-6.821210263297D-13 0.000000000000D+00
    1.000000000000D+00 7.271875000000D+01 4.452685472223D-09 2.534577281649D+00
    3.827735781670D-06 5.082124611363D-03 1.232884824276D-05 5.153662328720D+03
    2.592000000000D+05 1.043081283569D-07 1.841726862059D-01 2.421438694000D-08
    9.400504574463D-01 1.306875000000D+02-1.894372115242D+00-7.774966715715D-09
   -3.257278535868D-10 1.000000000000D+00 1.537000000000D+03 0.000000000000D+00
    2.800000000000D+00 0.000000000000D+00-1.769512891769D-08 2.570000000000D+02
    2.585220000000D+05 4.000000000000D+00
28 09  6 24  0  0  0.0-2.563511952758D-05-2.273736754432D-13 0.000000000000D+00
    3.100000000000D+01-1.498750000000D+02 4.072312485304D-09 2.778351696403D+00
   -7.662922143936D-06 1.490291103255D-02 1.221336424351D-05 5.153656969070D+03
    2.592000000000D+05 3.725290298462D-08-2.961265763965D+00-2.067536115646D-07
    9.673045437283D-01 1.443125000000D+02-2.023094872445D+00-7.423880663000D-09
    1.571494030463D-10 1.000000000000D+00 1.537000000000D+03 0.000000000000D+00
    2.000000000000D+00 0.000000000000D+00-1.071020960808D-08 3.100000000000D+01
    2.585220000000D+05 4.000000000000D+00
